start=new Date('2022-08-16T00:00:00.000Z').valueOf();
sats=[{"OBJECT_TYPE":"PAYLOAD","SEMIMAJOR_AXIS":"6917.970","BSTAR":"0.00283760000000","CLASSIFICATION_TYPE":"U","GP_ID":"210276406","MEAN_ELEMENT_THEORY":"SGP4","OBJECT_ID":"2022-045Z","RA_OF_ASC_NODE":"282.6218","PERIOD":"95.439","ARG_OF_PERICENTER":"46.1408","ELEMENT_SET_NO":"999","TIME_SYSTEM":"UTC","TLE_LINE1":"1 52354U 22045Z   22228.00001157  .00045126  00000-0  28376-2 0  9998","EPHEMERIS_TYPE":"0","REV_AT_EPOCH":"1927","MEAN_ANOMALY":"5.4196","DECAY_DATE":null,"MEAN_MOTION_DDOT":"0.0000000000000","CENTER_NAME":"EARTH","LAUNCH_DATE":"2022-04-29","SITE":"AFETR","APOAPSIS":"541.166","TLE_LINE2":"2 52354  53.2171 282.6218 0001924  46.1408   5.4196 15.08810598 19277","MEAN_MOTION_DOT":"0.00045126","COUNTRY_CODE":"US","MEAN_MOTION":"15.08810598","EPOCH":"2022-08-16T00:00:00.999648","PERIAPSIS":"538.504","OBJECT_NAME":"STARLINK-3876","ECCENTRICITY":"0.00019240","REF_FRAME":"TEME","FILE":"3537354","NORAD_CAT_ID":"52354","RCS_SIZE":"LARGE","INCLINATION":"53.2171"},{"ARG_OF_PERICENTER":"50.3725","PERIOD":"95.440","RA_OF_ASC_NODE":"282.6299","TIME_SYSTEM":"UTC","ELEMENT_SET_NO":"999","OBJECT_TYPE":"PAYLOAD","BSTAR":"0.00288100000000","SEMIMAJOR_AXIS":"6917.977","OBJECT_ID":"2022-045AA","MEAN_ELEMENT_THEORY":"SGP4","GP_ID":"210276683","CLASSIFICATION_TYPE":"U","MEAN_ANOMALY":"281.2032","SITE":"AFETR","CENTER_NAME":"EARTH","LAUNCH_DATE":"2022-04-29","MEAN_MOTION_DDOT":"0.0000000000000","DECAY_DATE":null,"TLE_LINE1":"1 52355U 22045AA  22228.00001157  .00045822  00000-0  28810-2 0  9995","REV_AT_EPOCH":"1926","EPHEMERIS_TYPE":"0","MEAN_MOTION":"15.08808496","EPOCH":"2022-08-16T00:00:00.999648","ECCENTRICITY":"0.00018350","OBJECT_NAME":"STARLINK-3877","PERIAPSIS":"538.572","TLE_LINE2":"2 52355  53.2171 282.6299 0001835  50.3725 281.2032 15.08808496 19263","APOAPSIS":"541.111","COUNTRY_CODE":"US","MEAN_MOTION_DOT":"0.00045822","INCLINATION":"53.2171","RCS_SIZE":"LARGE","NORAD_CAT_ID":"52355","REF_FRAME":"TEME","FILE":"3537363"},{"EPOCH":"2022-08-15T22:00:00.999936","MEAN_MOTION":"15.08833093","OBJECT_NAME":"STARLINK-3801","ECCENTRICITY":"0.00018060","PERIAPSIS":"538.517","APOAPSIS":"541.016","TLE_LINE2":"2 52356  53.2158 282.9889 0001806  52.5791 260.7322 15.08833093  1303","MEAN_MOTION_DOT":"0.00003879","COUNTRY_CODE":"US","INCLINATION":"53.2158","NORAD_CAT_ID":"52356","RCS_SIZE":"LARGE","REF_FRAME":"TEME","FILE":"3537378","PERIOD":"95.438","ARG_OF_PERICENTER":"52.5791","RA_OF_ASC_NODE":"282.9889","TIME_SYSTEM":"UTC","ELEMENT_SET_NO":"999","SEMIMAJOR_AXIS":"6917.902","OBJECT_TYPE":"PAYLOAD","BSTAR":"0.00026172000000","GP_ID":"210301994","MEAN_ELEMENT_THEORY":"SGP4","OBJECT_ID":"2022-045AB","CLASSIFICATION_TYPE":"U","MEAN_ANOMALY":"260.7322","LAUNCH_DATE":"2022-04-29","CENTER_NAME":"EARTH","SITE":"AFETR","DECAY_DATE":null,"MEAN_MOTION_DDOT":"0.0000000000000","TLE_LINE1":"1 52356U 22045AB  22227.91667824  .00003879  00000-0  26172-3 0  9990","REV_AT_EPOCH":"130","EPHEMERIS_TYPE":"0"},{"REF_FRAME":"TEME","FILE":"3537378","NORAD_CAT_ID":"52357","RCS_SIZE":"LARGE","INCLINATION":"53.2187","APOAPSIS":"541.164","TLE_LINE2":"2 52357  53.2187 283.0005 0002018  40.2538 238.3823 15.08832671  1305","MEAN_MOTION_DOT":"0.00004159","COUNTRY_CODE":"US","EPOCH":"2022-08-15T22:00:00.999936","MEAN_MOTION":"15.08832671","PERIAPSIS":"538.372","OBJECT_NAME":"STARLINK-3821","ECCENTRICITY":"0.00020180","TLE_LINE1":"1 52357U 22045AC  22227.91667824  .00004159  00000-0  27933-3 0  9999","EPHEMERIS_TYPE":"0","REV_AT_EPOCH":"130","MEAN_ANOMALY":"238.3823","DECAY_DATE":null,"MEAN_MOTION_DDOT":"0.0000000000000","LAUNCH_DATE":"2022-04-29","CENTER_NAME":"EARTH","SITE":"AFETR","SEMIMAJOR_AXIS":"6917.903","OBJECT_TYPE":"PAYLOAD","BSTAR":"0.00027933000000","CLASSIFICATION_TYPE":"U","GP_ID":"210301857","MEAN_ELEMENT_THEORY":"SGP4","OBJECT_ID":"2022-045AC","RA_OF_ASC_NODE":"283.0005","PERIOD":"95.438","ARG_OF_PERICENTER":"40.2538","ELEMENT_SET_NO":"999","TIME_SYSTEM":"UTC"},{"GP_ID":"210302265","MEAN_ELEMENT_THEORY":"SGP4","OBJECT_ID":"2022-045AD","CLASSIFICATION_TYPE":"U","OBJECT_TYPE":"PAYLOAD","BSTAR":"0.00025642000000","SEMIMAJOR_AXIS":"6917.868","TIME_SYSTEM":"UTC","ELEMENT_SET_NO":"999","PERIOD":"95.437","ARG_OF_PERICENTER":"47.9545","RA_OF_ASC_NODE":"282.9889","REV_AT_EPOCH":"130","EPHEMERIS_TYPE":"0","TLE_LINE1":"1 52358U 22045AD  22227.91667824  .00003796  00000-0  25642-3 0  9991","CENTER_NAME":"EARTH","LAUNCH_DATE":"2022-04-29","SITE":"AFETR","DECAY_DATE":null,"MEAN_MOTION_DDOT":"0.0000000000000","MEAN_ANOMALY":"330.6782","MEAN_MOTION_DOT":"0.00003796","COUNTRY_CODE":"US","APOAPSIS":"540.836","TLE_LINE2":"2 52358  53.2149 282.9889 0001594  47.9545 330.6782 15.08843900  1309","OBJECT_NAME":"STARLINK-3837","ECCENTRICITY":"0.00015940","PERIAPSIS":"538.631","EPOCH":"2022-08-15T22:00:00.999936","MEAN_MOTION":"15.08843900","FILE":"3537378","REF_FRAME":"TEME","INCLINATION":"53.2149","NORAD_CAT_ID":"52358","RCS_SIZE":"LARGE"},{"FILE":"3537378","REF_FRAME":"TEME","INCLINATION":"53.2180","RCS_SIZE":"LARGE","NORAD_CAT_ID":"52359","COUNTRY_CODE":"US","MEAN_MOTION_DOT":"0.00003318","TLE_LINE2":"2 52359  53.2180 282.9992 0001743  46.4927 252.1003 15.08835468  1308","APOAPSIS":"540.965","ECCENTRICITY":"0.00017430","OBJECT_NAME":"STARLINK-3853","PERIAPSIS":"538.553","EPOCH":"2022-08-15T22:00:00.999936","MEAN_MOTION":"15.08835468","REV_AT_EPOCH":"130","EPHEMERIS_TYPE":"0","TLE_LINE1":"1 52359U 22045AE  22227.91667824  .00003318  00000-0  22647-3 0  9994","SITE":"AFETR","LAUNCH_DATE":"2022-04-29","CENTER_NAME":"EARTH","MEAN_MOTION_DDOT":"0.0000000000000","DECAY_DATE":null,"MEAN_ANOMALY":"252.1003","OBJECT_ID":"2022-045AE","GP_ID":"210301311","MEAN_ELEMENT_THEORY":"SGP4","CLASSIFICATION_TYPE":"U","OBJECT_TYPE":"PAYLOAD","SEMIMAJOR_AXIS":"6917.894","BSTAR":"0.00022647000000","TIME_SYSTEM":"UTC","ELEMENT_SET_NO":"999","ARG_OF_PERICENTER":"46.4927","PERIOD":"95.438","RA_OF_ASC_NODE":"282.9992"},{"INCLINATION":"53.2152","RCS_SIZE":"LARGE","NORAD_CAT_ID":"52360","REF_FRAME":"TEME","FILE":"3537378","EPOCH":"2022-08-15T22:00:00.999936","MEAN_MOTION":"15.08818193","ECCENTRICITY":"0.00016650","OBJECT_NAME":"STARLINK-3824","PERIAPSIS":"538.660","TLE_LINE2":"2 52360  53.2152 273.0123 0001665  54.8617 358.7798 15.08818193  1308","APOAPSIS":"540.964","COUNTRY_CODE":"US","MEAN_MOTION_DOT":"0.00019074","MEAN_ANOMALY":"358.7798","SITE":"AFETR","CENTER_NAME":"EARTH","LAUNCH_DATE":"2022-04-29","MEAN_MOTION_DDOT":"0.0000000000000","DECAY_DATE":null,"TLE_LINE1":"1 52360U 22045AF  22227.91667824  .00019074  00000-0  12140-2 0  9998","REV_AT_EPOCH":"130","EPHEMERIS_TYPE":"0","ARG_OF_PERICENTER":"54.8617","PERIOD":"95.439","RA_OF_ASC_NODE":"273.0123","TIME_SYSTEM":"UTC","ELEMENT_SET_NO":"999","OBJECT_TYPE":"PAYLOAD","SEMIMAJOR_AXIS":"6917.947","BSTAR":"0.00121400000000","OBJECT_ID":"2022-045AF","MEAN_ELEMENT_THEORY":"SGP4","GP_ID":"210301587","CLASSIFICATION_TYPE":"U"},{"BSTAR":"0.00270760000000","OBJECT_TYPE":"PAYLOAD","SEMIMAJOR_AXIS":"6917.969","OBJECT_ID":"2022-045AG","GP_ID":"210276615","MEAN_ELEMENT_THEORY":"SGP4","CLASSIFICATION_TYPE":"U","ARG_OF_PERICENTER":"46.4847","PERIOD":"95.439","RA_OF_ASC_NODE":"282.6208","TIME_SYSTEM":"UTC","ELEMENT_SET_NO":"999","TLE_LINE1":"1 52361U 22045AG  22228.00001157  .00043033  00000-0  27076-2 0  9997","REV_AT_EPOCH":"1927","EPHEMERIS_TYPE":"0","MEAN_ANOMALY":"25.0654","SITE":"AFETR","LAUNCH_DATE":"2022-04-29","CENTER_NAME":"EARTH","MEAN_MOTION_DDOT":"0.0000000000000","DECAY_DATE":null,"TLE_LINE2":"2 52361  53.2169 282.6208 0002015  46.4847  25.0654 15.08811008 19277","APOAPSIS":"541.228","COUNTRY_CODE":"US","MEAN_MOTION_DOT":"0.00043033","EPOCH":"2022-08-16T00:00:00.999648","MEAN_MOTION":"15.08811008","ECCENTRICITY":"0.00020150","OBJECT_NAME":"STARLINK-3728","PERIAPSIS":"538.440","REF_FRAME":"TEME","FILE":"3537355","INCLINATION":"53.2169","RCS_SIZE":"LARGE","NORAD_CAT_ID":"52361"},{"REV_AT_EPOCH":"130","EPHEMERIS_TYPE":"0","TLE_LINE1":"1 52362U 22045AH  22227.91667824  .00018639  00000-0  11870-2 0  9995","SITE":"AFETR","LAUNCH_DATE":"2022-04-29","CENTER_NAME":"EARTH","MEAN_MOTION_DDOT":"0.0000000000000","DECAY_DATE":null,"MEAN_ANOMALY":"33.8578","OBJECT_ID":"2022-045AH","GP_ID":"210302126","MEAN_ELEMENT_THEORY":"SGP4","CLASSIFICATION_TYPE":"U","OBJECT_TYPE":"PAYLOAD","SEMIMAJOR_AXIS":"6917.969","BSTAR":"0.00118700000000","TIME_SYSTEM":"UTC","ELEMENT_SET_NO":"999","ARG_OF_PERICENTER":"39.8117","PERIOD":"95.439","RA_OF_ASC_NODE":"273.0109","FILE":"3537378","REF_FRAME":"TEME","INCLINATION":"53.2148","RCS_SIZE":"LARGE","NORAD_CAT_ID":"52362","COUNTRY_CODE":"US","MEAN_MOTION_DOT":"0.00018639","TLE_LINE2":"2 52362  53.2148 273.0109 0001706  39.8117  33.8578 15.08811142  1307","APOAPSIS":"541.014","ECCENTRICITY":"0.00017060","OBJECT_NAME":"STARLINK-3848","PERIAPSIS":"538.653","EPOCH":"2022-08-15T22:00:00.999936","MEAN_MOTION":"15.08811142"},{"INCLINATION":"53.2157","NORAD_CAT_ID":"52363","RCS_SIZE":"LARGE","FILE":"3537378","REF_FRAME":"TEME","OBJECT_NAME":"STARLINK-3830","ECCENTRICITY":"0.00016250","PERIAPSIS":"538.676","MEAN_MOTION":"15.08822054","EPOCH":"2022-08-15T22:00:00.999936","MEAN_MOTION_DOT":"0.00003722","COUNTRY_CODE":"US","APOAPSIS":"540.924","TLE_LINE2":"2 52363  53.2157 282.9907 0001625  45.8399 312.8306 15.08822054  1305","CENTER_NAME":"EARTH","LAUNCH_DATE":"2022-04-29","SITE":"AFETR","DECAY_DATE":null,"MEAN_MOTION_DDOT":"0.0000000000000","MEAN_ANOMALY":"312.8306","REV_AT_EPOCH":"130","EPHEMERIS_TYPE":"0","TLE_LINE1":"1 52363U 22045AJ  22227.91667824  .00003722  00000-0  25197-3 0  9991","TIME_SYSTEM":"UTC","ELEMENT_SET_NO":"999","PERIOD":"95.439","ARG_OF_PERICENTER":"45.8399","RA_OF_ASC_NODE":"282.9907","MEAN_ELEMENT_THEORY":"SGP4","GP_ID":"210301721","OBJECT_ID":"2022-045AJ","CLASSIFICATION_TYPE":"U","SEMIMAJOR_AXIS":"6917.935","OBJECT_TYPE":"PAYLOAD","BSTAR":"0.00025197000000"}];
